[
    {
        "Altitude(m)": 624790.77109258,
        "Argument of Periapsis(deg)": 0.0,
        "Eccentricity": 0.0,
        "Inclination(deg)": 60.0,
        "Latitude(deg)": -59.147042923780724,
        "Longitude(deg)": 116.03456032703282,
        "Mean Anomaly(deg)": -81.81820000000006,
        "RAAN(deg)": 290.0,
        "Satellite Name": "Test1 1293",
        "Satellite Number": 1293,
        "Semi-Major Axis(m)": 6980739.136638005,
        "Time(s)": 0
    },
    {
        "Altitude(m)": 624737.4262751727,
        "Argument of Periapsis(deg)": 0.00010418945913296404,
        "Eccentricity": 0.0,
        "Inclination(deg)": 60.0,
        "Latitude(deg)": -58.99449861385073,
        "Longitude(deg)": 117.154060291143,
        "Mean Anomaly(deg)": -81.1980938545382,
        "RAAN(deg)": 289.99957995086027,
        "Satellite Name": "Test1 1293",
        "Satellite Number": 1293,
        "Semi-Major Axis(m)": 6980739.136638005,
        "Time(s)": 10
    }
]